{"fetched_at":"2026-05-15T02:58:15Z","count":8847,"tles":[{"name":"CROCUBE","line1":"1 62394U 24247T   26133.94365514  .00027024  00000+0  55089-3 0  9999","line2":"2 62394  44.9715  92.1524 0004487 130.7673 229.3607 15.45786748 78042","category":"Other"},{"name":"SITRO-AIS 11 (SHEFFER)","line1":"1 57208U 23091AU  26134.25555459  .00013014  00000+0  35559-3 0  9991","line2":"2 57208  97.5109 204.4482 0007116 176.2679 183.8620 15.37504294159577","category":"Other"},{"name":"SITRO-AIS 6 (CHIRKIN)","line1":"1 57192U 23091AC  26134.26931657  .00004357  00000+0  17597-3 0  9994","line2":"2 57192  97.5091 197.1594 0010975 218.4017 141.6440 15.25260477159114","category":"Other"},{"name":"SITRO-AIS 28","line1":"1 59071U 24039U   26134.29278760  .00003644  00000+0  28228-3 0  9998","line2":"2 59071  95.3926 212.0105 0146802  85.8499 275.9489 14.93517591119687","category":"Other"},{"name":"SITRO-AIS 5 (KATYS)","line1":"1 57176U 23091L   26134.30130535  .00007761  00000+0  28090-3 0  9999","line2":"2 57176  97.5083 197.8967 0010861 214.6828 145.3705 15.28643587159160","category":"Other"},{"name":"GREENCUBE (IO-117)","line1":"1 53109U 22080E   26133.47737909 -.00000003  00000+0  00000+0 0  9993","line2":"2 53109  70.1436 310.3212 0008810 297.6025  62.3740  6.42583324 89838","category":"Other"},{"name":"SITRO-AIS 27","line1":"1 59068U 24039T   26134.31456256  .00003177  00000+0  24654-3 0  9995","line2":"2 59068  95.3925 211.9801 0146926  85.8960 275.9043 14.93483917119683","category":"Other"},{"name":"OOV-CUBE (TUBSAT-30)","line1":"1 60240U 24128F   26134.05196105  .00001457  00000+0  12208-3 0  9994","line2":"2 60240  61.9949 344.5856 0048830 126.3420 234.2194 15.02592557100982","category":"Other"},{"name":"KNACKSAT-2","line1":"1 67683U 98067XZ  26134.29936396  .00031826  00000+0  43691-3 0  9998","line2":"2 67683  51.6275 104.5251 0012474  73.4631 286.7730 15.56949478 14992","category":"Other"},{"name":"ROBUSTA-3A (MEDITERRAN*)","line1":"1 60243U 24128J   26134.12903920  .00005248  00000+0  31713-3 0  9990","line2":"2 60243  61.9867 328.6362 0045854 121.4904 239.0684 15.11118441101271","category":"Other"},{"name":"SITRO-AIS 8 (ANOKHIN)","line1":"1 57193U 23091AD  26134.24522534  .00008932  00000+0  29873-3 0  9996","line2":"2 57193  97.5078 199.2950 0010160 210.0764 149.9895 15.31178410159254","category":"Other"},{"name":"CORVUS BC4","line1":"1 43767U 18099K   26134.17976162  .00002749  00000+0  16269-3 0  9997","line2":"2 43767  97.4096 178.1583 0009994 115.0350 245.1919 15.12205968407262","category":"Other"},{"name":"LASARSAT","line1":"1 62391U 24247Q   26134.29551416  .00022146  00000+0  47806-3 0  9991","line2":"2 62391  44.9738  92.3362 0004832 129.6361 230.4955 15.44206327 78072","category":"Other"},{"name":"NETSAT-1","line1":"1 46506U 20068W   26133.95878587  .00008878  00000+0  27422-3 0  9999","line2":"2 46506  97.8748 132.4691 0006813 119.6117 240.5803 15.33779633310054","category":"Other"},{"name":"SITRO-AIS 12 (SMIRENNIY)","line1":"1 57204U 23091AQ  26134.29821685  .00012471  00000+0  34520-3 0  9991","line2":"2 57204  97.5111 204.2657 0007182 176.3198 183.8100 15.37112936159568","category":"Other"},{"name":"GRBBETA","line1":"1 60237U 24128C   26133.90430372  .00002765  00000+0  19753-3 0  9995","line2":"2 60237  61.9905 336.5219 0045211 127.6054 232.9156 15.06346661101106","category":"Other"},{"name":"SITRO-AIS 25","line1":"1 59066U 24039R   26134.27107995  .00003120  00000+0  24326-3 0  9995","line2":"2 59066  95.3921 211.7897 0147422  86.8163 274.9917 14.93268043119666","category":"Other"},{"name":"SITRO-AIS 26","line1":"1 59067U 24039S   26134.26788799  .00002983  00000+0  23377-3 0  9993","line2":"2 59067  95.3922 211.6921 0147754  87.3575 274.4553 14.93070796119652","category":"Other"},{"name":"SIRION PATHFINDER-2","line1":"1 43759U 18099B   26134.08675977  .00003566  00000+0  19853-3 0  9998","line2":"2 43759  97.4281 183.9584 0010177  64.4222 295.8061 15.14223250407462","category":"Other"}]}