OBJECT_NAME,OBJECT_ID,EPOCH,MEAN_MOTION,ECCENTRICITY,INCLINATION,RA_OF_ASC_NODE,ARG_OF_PERICENTER,MEAN_ANOMALY,EPHEMERIS_TYPE,CLASSIFICATION_TYPE,NORAD_CAT_ID,ELEMENT_SET_NO,REV_AT_EPOCH,BSTAR,MEAN_MOTION_DOT,MEAN_MOTION_DDOT
SIRION PATHFINDER-2,2018-099B,2026-05-14T02:04:56.044128,15.14223250,.00101778,97.4281,183.9584,64.4222,295.8061,0,U,43759,999,40746,.1985285E-3,.3566E-4,0
CORVUS BC4,2018-099K,2026-05-14T04:18:51.403968,15.12205968,.00099947,97.4096,178.1583,115.0350,245.1919,0,U,43767,999,40726,.16268858E-3,.2749E-4,0
NETSAT-1,2020-068W,2026-05-13T23:00:39.099168,15.33779633,.0006813,97.8748,132.4691,119.6117,240.5803,0,U,46506,999,31005,.27422E-3,.8878E-4,0
GREENCUBE (IO-117),2022-080E,2026-05-13T11:27:25.553376,6.42583324,.00088105,70.1436,310.3212,297.6025,62.3740,0,U,53109,999,8983,0,-.3E-7,0
SITRO-AIS 5 (KATYS),2023-091L,2026-05-14T07:13:52.782240,15.28643587,.00108617,97.5083,197.8967,214.6828,145.3705,0,U,57176,999,15916,.28089618E-3,.7761E-4,0
SITRO-AIS 6 (CHIRKIN),2023-091AC,2026-05-14T06:27:48.951648,15.25260477,.00109756,97.5091,197.1594,218.4017,141.6440,0,U,57192,999,15911,.17596677E-3,.4357E-4,0
SITRO-AIS 8 (ANOKHIN),2023-091AD,2026-05-14T05:53:07.469376,15.31178410,.00101609,97.5078,199.2950,210.0764,149.9895,0,U,57193,999,15925,.29873281E-3,.8932E-4,0
SITRO-AIS 12 (SMIRENNIY),2023-091AQ,2026-05-14T07:09:25.935840,15.37112936,.00071827,97.5111,204.2657,176.3198,183.8100,0,U,57204,999,15956,.3451992E-3,.12471E-3,0
SITRO-AIS 11 (SHEFFER),2023-091AU,2026-05-14T06:07:59.916576,15.37504294,.00071169,97.5109,204.4482,176.2679,183.8620,0,U,57208,999,15957,.35558746E-3,.13014E-3,0
SITRO-AIS 25,2024-039R,2026-05-14T06:30:21.307680,14.93268043,.01474223,95.3921,211.7897,86.8163,274.9917,0,U,59066,999,11966,.24325826E-3,.312E-4,0
SITRO-AIS 26,2024-039S,2026-05-14T06:25:45.522336,14.93070796,.01477543,95.3922,211.6921,87.3575,274.4553,0,U,59067,999,11965,.23376702E-3,.2983E-4,0
SITRO-AIS 27,2024-039T,2026-05-14T07:32:58.205184,14.93483917,.01469265,95.3925,211.9801,85.8960,275.9043,0,U,59068,999,11968,.24653733E-3,.3177E-4,0
SITRO-AIS 28,2024-039U,2026-05-14T07:01:36.848640,14.93517591,.01468029,95.3926,212.0105,85.8499,275.9489,0,U,59071,999,11968,.28228495E-3,.3644E-4,0
GRBBETA,2024-128C,2026-05-13T21:42:11.841408,15.06346661,.0045211,61.9905,336.5219,127.6054,232.9156,0,U,60237,999,10110,.19753E-3,.2765E-4,0
OOV-CUBE (TUBSAT-30),2024-128F,2026-05-14T01:14:49.434720,15.02592557,.004883,61.9949,344.5856,126.3420,234.2194,0,U,60240,999,10098,.12207744E-3,.1457E-4,0
ROBUSTA-3A (MEDITERRANEE),2024-128J,2026-05-14T03:05:48.986880,15.11118441,.0045854,61.9867,328.6362,121.4904,239.0684,0,U,60243,999,10127,.3171284E-3,.5248E-4,0
LASARSAT,2024-247Q,2026-05-14T07:05:32.423424,15.44206327,.00048327,44.9738,92.3362,129.6361,230.4955,0,U,62391,999,7807,.47806398E-3,.22146E-3,0
CROCUBE,2024-247T,2026-05-13T22:38:51.804096,15.45786748,.0004487,44.9715,92.1524,130.7673,229.3607,0,U,62394,999,7804,.55089E-3,.27024E-3,0
KNACKSAT-2,1998-067XZ,2026-05-14T07:11:05.046144,15.56949478,.0012474,51.6275,104.5251,73.4631,286.7730,0,U,67683,999,1499,.43690853E-3,.31826E-3,0
